[{"OBJECT_NAME":"NPSAT1","OBJECT_ID":"2019-036B","EPOCH":"2026-03-09T08:03:28.323072","MEAN_MOTION":14.73510979,"ECCENTRICITY":0.00080689,"INCLINATION":23.9975,"RA_OF_ASC_NODE":147.5764,"ARG_OF_PERICENTER":159.0133,"MEAN_ANOMALY":201.0695,"EPHEMERIS_TYPE":0,"CLASSIFICATION_TYPE":"U","NORAD_CAT_ID":44340,"ELEMENT_SET_NO":999,"REV_AT_EPOCH":35774,"BSTAR":0.0011274615,"MEAN_MOTION_DOT":7.738e-5,"MEAN_MOTION_DDOT":0},{"OBJECT_NAME":"NCUBE-2","OBJECT_ID":"2005-043H","EPOCH":"2026-03-09T21:58:04.865376","MEAN_MOTION":14.73594959,"ECCENTRICITY":0.00142006,"INCLINATION":98.28,"RA_OF_ASC_NODE":224.6581,"ARG_OF_PERICENTER":142.4002,"MEAN_ANOMALY":8.8891,"EPHEMERIS_TYPE":0,"CLASSIFICATION_TYPE":"U","NORAD_CAT_ID":28897,"ELEMENT_SET_NO":999,"REV_AT_EPOCH":7968,"BSTAR":0.0004424913,"MEAN_MOTION_DOT":2.833e-5,"MEAN_MOTION_DDOT":0}]
